{
    "links": {
        "self": "http://www.neowsapp.com/rest/v1/neo/3781338?api_key=iIulBulltgU6a56xZRHN4H3l9WmuAYTsLGpBGhQ2"
    },
    "id": "3781338",
    "neo_reference_id": "3781338",
    "name": "(2017 RK)",
    "designation": "2017 RK",
    "nasa_jpl_url": "http://ssd.jpl.nasa.gov/sbdb.cgi?sstr=3781338",
    "absolute_magnitude_h": 25.5,
    "estimated_diameter": {
        "kilometers": {
            "estimated_diameter_min": 0.0211132445,
            "estimated_diameter_max": 0.0472106499
        },
        "meters": {
            "estimated_diameter_min": 21.113244479,
            "estimated_diameter_max": 47.2106498806
        },
        "miles": {
            "estimated_diameter_min": 0.0131191578,
            "estimated_diameter_max": 0.0293353287
        },
        "feet": {
            "estimated_diameter_min": 69.2691770164,
            "estimated_diameter_max": 154.8905885541
        }
    },
    "is_potentially_hazardous_asteroid": false,
    "close_approach_data": [
        {
            "close_approach_date": "1985-09-20",
            "close_approach_date_full": "1985-Sep-20 07:16",
            "epoch_date_close_approach": 496048560000,
            "relative_velocity": {
                "kilometers_per_second": "7.5287693259",
                "kilometers_per_hour": "27103.5695733166",
                "miles_per_hour": "16841.1041051533"
            },
            "miss_distance": {
                "astronomical": "0.1776251372",
                "lunar": "69.0961783708",
                "kilometers": "26572342.183577764",
                "miles": "16511287.7942865832"
            },
            "orbiting_body": "Earth"
        },
        {
            "close_approach_date": "2010-10-01",
            "close_approach_date_full": "2010-Oct-01 04:20",
            "epoch_date_close_approach": 1285906800000,
            "relative_velocity": {
                "kilometers_per_second": "11.1217521762",
                "kilometers_per_hour": "40038.3078344003",
                "miles_per_hour": "24878.2474429917"
            },
            "miss_distance": {
                "astronomical": "0.3078762614",
                "lunar": "119.7638656846",
                "kilometers": "46057632.929003218",
                "miles": "28618886.0267036884"
            },
            "orbiting_body": "Earth"
        },
        {
            "close_approach_date": "2017-08-23",
            "close_approach_date_full": "2017-Aug-23 11:21",
            "epoch_date_close_approach": 1503487260000,
            "relative_velocity": {
                "kilometers_per_second": "4.5373481834",
                "kilometers_per_hour": "16334.4534603077",
                "miles_per_hour": "10149.5941514895"
            },
            "miss_distance": {
                "astronomical": "0.0319930753",
                "lunar": "12.4453062917",
                "kilometers": "4786095.919629611",
                "miles": "2973942.1009301918"
            },
            "orbiting_body": "Earth"
        },
        {
            "close_approach_date": "2024-07-10",
            "close_approach_date_full": "2024-Jul-10 15:18",
            "epoch_date_close_approach": 1720624680000,
            "relative_velocity": {
                "kilometers_per_second": "16.2930195239",
                "kilometers_per_hour": "58654.8702860425",
                "miles_per_hour": "36445.8553730135"
            },
            "miss_distance": {
                "astronomical": "0.4849905535",
                "lunar": "188.6613253115",
                "kilometers": "72553553.773721045",
                "miles": "45082687.802978621"
            },
            "orbiting_body": "Earth"
        }
    ],
    "orbital_data": {
        "orbit_id": "2",
        "orbit_determination_date": "2017-09-19 06:49:31",
        "first_observation_date": "2017-09-01",
        "last_observation_date": "2017-09-16",
        "data_arc_in_days": 15,
        "observations_used": 14,
        "orbit_uncertainty": "8",
        "minimum_orbit_intersection": ".0230435",
        "jupiter_tisserand_invariant": "5.141",
        "epoch_osculation": "2457998.5",
        "eccentricity": ".1696454780217765",
        "semi_major_axis": "1.243371776803552",
        "inclination": "7.242168388753623",
        "ascending_node_longitude": "333.6515320189827",
        "orbital_period": "506.4072732206045",
        "perihelion_distance": "1.032439377368928",
        "perihelion_argument": "6.673969684393711",
        "aphelion_distance": "1.454304176238176",
        "perihelion_time": "2457997.686702408759",
        "mean_anomaly": ".5781653391048633",
        "mean_motion": ".7108902637011977",
        "equinox": "J2000",
        "orbit_class": {
            "orbit_class_type": "AMO",
            "orbit_class_description": "Near-Earth asteroid orbits similar to that of 1221 Amor",
            "orbit_class_range": "1.017 AU < q (perihelion) < 1.3 AU"
        }
    },
    "is_sentry_object": false
}